start=new Date('2021-11-05T00:00:00.000Z').valueOf();
sats=[{"BSTAR":"0.00110640000000","RA_OF_ASC_NODE":"341.2880","CLASSIFICATION_TYPE":"U","TIME_SYSTEM":"UTC","REF_FRAME":"TEME","TLE_LINE1":"1 49146U 21082S   21308.91667824  .00134132  00000-0  11064-2 0  9992","CENTER_NAME":"EARTH","REV_AT_EPOCH":"367","EPHEMERIS_TYPE":"0","FILE":"3202404","OBJECT_TYPE":"PAYLOAD","GP_ID":"188955841","ECCENTRICITY":"0.00037430","DECAY_DATE":null,"MEAN_ELEMENT_THEORY":"SGP4","OBJECT_ID":"2021-082S","APOAPSIS":"362.073","MEAN_MOTION":"15.69772087","LAUNCH_DATE":"2021-09-14","PERIAPSIS":"357.029","SITE":"AFWTR","TLE_LINE2":"2 49146  69.9996 341.2880 0003743 291.4436 355.3704 15.69772087  3671","SEMIMAJOR_AXIS":"6737.686","ARG_OF_PERICENTER":"291.4436","EPOCH":"2021-11-04T22:00:00.999936","RCS_SIZE":"LARGE","ELEMENT_SET_NO":"999","MEAN_MOTION_DDOT":"0.0000000000000","OBJECT_NAME":"STARLINK-3116","PERIOD":"91.733","INCLINATION":"69.9996","NORAD_CAT_ID":"49146","MEAN_ANOMALY":"355.3704","MEAN_MOTION_DOT":"0.00134132","COUNTRY_CODE":"US"},{"ECCENTRICITY":"0.00039750","DECAY_DATE":null,"MEAN_ELEMENT_THEORY":"SGP4","OBJECT_ID":"2021-082T","FILE":"3202404","OBJECT_TYPE":"PAYLOAD","GP_ID":"188955726","TLE_LINE1":"1 49147U 21082T   21308.91667824  .00021397  00000-0  17999-3 0  9995","REV_AT_EPOCH":"367","CENTER_NAME":"EARTH","EPHEMERIS_TYPE":"0","BSTAR":"0.00017999000000","RA_OF_ASC_NODE":"341.2922","CLASSIFICATION_TYPE":"U","TIME_SYSTEM":"UTC","REF_FRAME":"TEME","NORAD_CAT_ID":"49147","MEAN_ANOMALY":"351.9640","MEAN_MOTION_DOT":"0.00021397","COUNTRY_CODE":"US","PERIOD":"91.730","INCLINATION":"69.9984","PERIAPSIS":"356.726","SITE":"AFWTR","SEMIMAJOR_AXIS":"6737.539","TLE_LINE2":"2 49147  69.9984 341.2922 0003975 290.6355 351.9640 15.69823536  3671","EPOCH":"2021-11-04T22:00:00.999936","ARG_OF_PERICENTER":"290.6355","RCS_SIZE":"LARGE","MEAN_MOTION_DDOT":"0.0000000000000","OBJECT_NAME":"STARLINK-3071","ELEMENT_SET_NO":"999","APOAPSIS":"362.082","MEAN_MOTION":"15.69823536","LAUNCH_DATE":"2021-09-14"},{"FILE":"3202404","OBJECT_TYPE":"PAYLOAD","GP_ID":"188956414","ECCENTRICITY":"0.00036490","DECAY_DATE":null,"MEAN_ELEMENT_THEORY":"SGP4","OBJECT_ID":"2021-082U","BSTAR":"0.00110560000000","RA_OF_ASC_NODE":"341.2822","CLASSIFICATION_TYPE":"U","REF_FRAME":"TEME","TIME_SYSTEM":"UTC","TLE_LINE1":"1 49148U 21082U   21308.91667824  .00134083  00000-0  11056-2 0  9990","CENTER_NAME":"EARTH","REV_AT_EPOCH":"367","EPHEMERIS_TYPE":"0","PERIOD":"91.733","INCLINATION":"69.9997","NORAD_CAT_ID":"49148","MEAN_ANOMALY":"359.9138","MEAN_MOTION_DOT":"0.00134083","COUNTRY_CODE":"US","APOAPSIS":"361.983","MEAN_MOTION":"15.69781324","LAUNCH_DATE":"2021-09-14","PERIAPSIS":"357.066","SITE":"AFWTR","TLE_LINE2":"2 49148  69.9997 341.2822 0003649 293.2886 359.9138 15.69781324  3679","SEMIMAJOR_AXIS":"6737.660","ARG_OF_PERICENTER":"293.2886","EPOCH":"2021-11-04T22:00:00.999936","RCS_SIZE":"LARGE","MEAN_MOTION_DDOT":"0.0000000000000","ELEMENT_SET_NO":"999","OBJECT_NAME":"STARLINK-3048"},{"ECCENTRICITY":"0.00037790","DECAY_DATE":null,"MEAN_ELEMENT_THEORY":"SGP4","OBJECT_ID":"2021-082V","OBJECT_TYPE":"PAYLOAD","GP_ID":"188955951","FILE":"3202404","CENTER_NAME":"EARTH","REV_AT_EPOCH":"367","EPHEMERIS_TYPE":"0","TLE_LINE1":"1 49149U 21082V   21308.91667824  .00136431  00000-0  11256-2 0  9992","REF_FRAME":"TEME","TIME_SYSTEM":"UTC","BSTAR":"0.00112560000000","RA_OF_ASC_NODE":"341.2815","CLASSIFICATION_TYPE":"U","COUNTRY_CODE":"US","NORAD_CAT_ID":"49149","MEAN_ANOMALY":"357.6192","MEAN_MOTION_DOT":"0.00136431","INCLINATION":"69.9982","PERIOD":"91.734","SEMIMAJOR_AXIS":"6737.722","TLE_LINE2":"2 49149  69.9982 341.2815 0003779 293.4468 357.6192 15.69759578  3679","ARG_OF_PERICENTER":"293.4468","EPOCH":"2021-11-04T22:00:00.999936","RCS_SIZE":"LARGE","ELEMENT_SET_NO":"999","MEAN_MOTION_DDOT":"0.0000000000000","OBJECT_NAME":"STARLINK-3053","PERIAPSIS":"357.041","SITE":"AFWTR","MEAN_MOTION":"15.69759578","LAUNCH_DATE":"2021-09-14","APOAPSIS":"362.133"},{"MEAN_MOTION_DOT":"0.00133194","NORAD_CAT_ID":"49150","MEAN_ANOMALY":"6.8198","COUNTRY_CODE":"US","PERIOD":"91.732","INCLINATION":"69.9987","PERIAPSIS":"356.784","SITE":"AFWTR","RCS_SIZE":"LARGE","MEAN_MOTION_DDOT":"0.0000000000000","ELEMENT_SET_NO":"999","OBJECT_NAME":"STARLINK-3104","SEMIMAJOR_AXIS":"6737.613","TLE_LINE2":"2 49150  69.9987 341.2729 0003999 290.6465   6.8198 15.69797488  3671","EPOCH":"2021-11-04T22:00:00.999936","ARG_OF_PERICENTER":"290.6465","APOAPSIS":"362.173","LAUNCH_DATE":"2021-09-14","MEAN_MOTION":"15.69797488","OBJECT_ID":"2021-082W","ECCENTRICITY":"0.00039990","DECAY_DATE":null,"MEAN_ELEMENT_THEORY":"SGP4","FILE":"3202404","OBJECT_TYPE":"PAYLOAD","GP_ID":"188956182","TLE_LINE1":"1 49150U 21082W   21308.91667824  .00133194  00000-0  10976-2 0  9995","EPHEMERIS_TYPE":"0","REV_AT_EPOCH":"367","CENTER_NAME":"EARTH","CLASSIFICATION_TYPE":"U","BSTAR":"0.00109760000000","RA_OF_ASC_NODE":"341.2729","TIME_SYSTEM":"UTC","REF_FRAME":"TEME"},{"TIME_SYSTEM":"UTC","REF_FRAME":"TEME","CLASSIFICATION_TYPE":"U","RA_OF_ASC_NODE":"341.2754","BSTAR":"0.00111240000000","EPHEMERIS_TYPE":"0","CENTER_NAME":"EARTH","REV_AT_EPOCH":"367","TLE_LINE1":"1 49151U 21082X   21308.91667824  .00134989  00000-0  11124-2 0  9995","GP_ID":"188956066","OBJECT_TYPE":"PAYLOAD","FILE":"3202404","OBJECT_ID":"2021-082X","DECAY_DATE":null,"MEAN_ELEMENT_THEORY":"SGP4","ECCENTRICITY":"0.00039410","LAUNCH_DATE":"2021-09-14","MEAN_MOTION":"15.69791871","APOAPSIS":"362.150","ELEMENT_SET_NO":"999","MEAN_MOTION_DDOT":"0.0000000000000","OBJECT_NAME":"STARLINK-3102","RCS_SIZE":"LARGE","EPOCH":"2021-11-04T22:00:00.999936","ARG_OF_PERICENTER":"291.6576","SEMIMAJOR_AXIS":"6737.629","TLE_LINE2":"2 49151  69.9987 341.2754 0003941 291.6576   3.6533 15.69791871  3679","SITE":"AFWTR","PERIAPSIS":"356.839","INCLINATION":"69.9987","PERIOD":"91.732","COUNTRY_CODE":"US","MEAN_MOTION_DOT":"0.00134989","MEAN_ANOMALY":"3.6533","NORAD_CAT_ID":"49151"},{"SITE":"AFWTR","PERIAPSIS":"356.744","MEAN_MOTION_DDOT":"0.0000000000000","ELEMENT_SET_NO":"999","OBJECT_NAME":"STARLINK-3081","RCS_SIZE":"LARGE","EPOCH":"2021-11-04T22:00:00.999936","ARG_OF_PERICENTER":"292.6119","TLE_LINE2":"2 49152  69.9995 341.2681 0003942 292.6119  11.2488 15.69824858  9361","SEMIMAJOR_AXIS":"6737.535","APOAPSIS":"362.056","LAUNCH_DATE":"2021-09-14","MEAN_MOTION":"15.69824858","MEAN_MOTION_DOT":"0.00019048","MEAN_ANOMALY":"11.2488","NORAD_CAT_ID":"49152","COUNTRY_CODE":"US","PERIOD":"91.730","INCLINATION":"69.9995","TLE_LINE1":"1 49152U 21082Y   21308.91667824  .00019048  00000-0  16046-3 0  9993","EPHEMERIS_TYPE":"0","CENTER_NAME":"EARTH","REV_AT_EPOCH":"936","CLASSIFICATION_TYPE":"U","RA_OF_ASC_NODE":"341.2681","BSTAR":"0.00016046000000","REF_FRAME":"TEME","TIME_SYSTEM":"UTC","OBJECT_ID":"2021-082Y","MEAN_ELEMENT_THEORY":"SGP4","DECAY_DATE":null,"ECCENTRICITY":"0.00039420","FILE":"3200958","GP_ID":"188899060","OBJECT_TYPE":"PAYLOAD"},{"EPHEMERIS_TYPE":"0","CENTER_NAME":"EARTH","REV_AT_EPOCH":"367","TLE_LINE1":"1 49153U 21082Z   21308.91667824  .00130829  00000-0  10801-2 0  9997","REF_FRAME":"TEME","TIME_SYSTEM":"UTC","CLASSIFICATION_TYPE":"U","BSTAR":"0.00108010000000","RA_OF_ASC_NODE":"341.2745","OBJECT_ID":"2021-082Z","ECCENTRICITY":"0.00035030","DECAY_DATE":null,"MEAN_ELEMENT_THEORY":"SGP4","OBJECT_TYPE":"PAYLOAD","GP_ID":"188955611","FILE":"3202404","RCS_SIZE":"LARGE","OBJECT_NAME":"STARLINK-3072","MEAN_MOTION_DDOT":"0.0000000000000","ELEMENT_SET_NO":"999","TLE_LINE2":"2 49153  69.9998 341.2745 0003503 291.7928   7.7870 15.69762486  3678","SEMIMAJOR_AXIS":"6737.714","EPOCH":"2021-11-04T22:00:00.999936","ARG_OF_PERICENTER":"291.7928","PERIAPSIS":"357.218","SITE":"AFWTR","LAUNCH_DATE":"2021-09-14","MEAN_MOTION":"15.69762486","APOAPSIS":"361.939","COUNTRY_CODE":"US","MEAN_MOTION_DOT":"0.00130829","NORAD_CAT_ID":"49153","MEAN_ANOMALY":"7.7870","INCLINATION":"69.9998","PERIOD":"91.734"},{"LAUNCH_DATE":"2021-09-14","MEAN_MOTION":"15.69768214","APOAPSIS":"362.211","RCS_SIZE":"LARGE","MEAN_MOTION_DDOT":"0.0000000000000","OBJECT_NAME":"STARLINK-3068","ELEMENT_SET_NO":"999","SEMIMAJOR_AXIS":"6737.697","TLE_LINE2":"2 49154  69.9999 341.2670 0003932 292.6173  13.3270 15.69768214  3688","ARG_OF_PERICENTER":"292.6173","EPOCH":"2021-11-04T22:00:00.999936","PERIAPSIS":"356.913","SITE":"AFWTR","INCLINATION":"69.9999","PERIOD":"91.733","COUNTRY_CODE":"US","MEAN_MOTION_DOT":"0.00135842","NORAD_CAT_ID":"49154","MEAN_ANOMALY":"13.3270","REF_FRAME":"TEME","TIME_SYSTEM":"UTC","CLASSIFICATION_TYPE":"U","BSTAR":"0.00112040000000","RA_OF_ASC_NODE":"341.2670","EPHEMERIS_TYPE":"0","REV_AT_EPOCH":"368","CENTER_NAME":"EARTH","TLE_LINE1":"1 49154U 21082AA  21308.91667824  .00135842  00000-0  11204-2 0  9996","OBJECT_TYPE":"PAYLOAD","GP_ID":"188955842","FILE":"3202404","OBJECT_ID":"2021-082AA","ECCENTRICITY":"0.00039320","DECAY_DATE":null,"MEAN_ELEMENT_THEORY":"SGP4"},{"COUNTRY_CODE":"US","MEAN_MOTION_DOT":"0.00139721","NORAD_CAT_ID":"49155","MEAN_ANOMALY":"3.9419","INCLINATION":"69.9986","PERIOD":"91.744","RCS_SIZE":"LARGE","MEAN_MOTION_DDOT":"0.0000000000000","ELEMENT_SET_NO":"999","OBJECT_NAME":"STARLINK-3060","SEMIMAJOR_AXIS":"6738.225","TLE_LINE2":"2 49155  69.9986 341.2666 0004355 299.7143   3.9419 15.69583801  3671","EPOCH":"2021-11-04T22:00:00.999936","ARG_OF_PERICENTER":"299.7143","PERIAPSIS":"357.155","SITE":"AFWTR","LAUNCH_DATE":"2021-09-14","MEAN_MOTION":"15.69583801","APOAPSIS":"363.024","OBJECT_ID":"2021-082AB","ECCENTRICITY":"0.00043550","MEAN_ELEMENT_THEORY":"SGP4","DECAY_DATE":null,"OBJECT_TYPE":"PAYLOAD","GP_ID":"188955727","FILE":"3202404","EPHEMERIS_TYPE":"0","CENTER_NAME":"EARTH","REV_AT_EPOCH":"367","TLE_LINE1":"1 49155U 21082AB  21308.91667824  .00139721  00000-0  11605-2 0  9992","TIME_SYSTEM":"UTC","REF_FRAME":"TEME","CLASSIFICATION_TYPE":"U","BSTAR":"0.00116050000000","RA_OF_ASC_NODE":"341.2666"}];
